NORAD_CAT_ID,OBJECT_NAME,OBJECT_TYPE,EPOCH,MEAN_MOTION,ECCENTRICITY,INCLINATION,RA_OF_ASC_NODE,ARG_OF_PERICENTER,MEAN_ANOMALY,BSTAR,MEAN_MOTION_DOT,MEAN_MOTION_DDOT,TLE_LINE0,TLE_LINE1,TLE_LINE2,SEMIMAJOR_AXIS,PERIOD,APOGEE,PERIGEE,DECAYED
51994.0,STARLINK-3647,PAYLOAD,2024-02-27 12:06:58,15.08848968,0.0001619,53.2179,106.4326,97.1131,263.0046,4.8322e-05,4.81e-06,0.0,0 STARLINK-3647,1 51994U 22025AQ  24058.50484120  .00000481  00000-0  48322-4 0  9998,2 51994  53.2179 106.4326 0001619  97.1131 263.0046 15.08848968110558,6917.853,95.437,540.838,538.598,0.0
51994.0,STARLINK-3647,PAYLOAD,2024-02-27 20:03:54,15.08843528,0.000157,53.2177,104.9418,90.1098,270.0074,-1.2735e-05,-4.91e-06,0.0,0 STARLINK-3647,1 51994U 22025AQ  24058.83604535 -.00000491  00000-0 -12735-4 0  9990,2 51994  53.2177 104.9418 0001570  90.1098 270.0074 15.08843528110604,6917.87,95.437,540.821,538.648,0.0
51994.0,STARLINK-3647,PAYLOAD,2024-02-28 02:25:27,15.08828866,0.0001528,53.2183,103.7528,82.6234,277.4932,0.00017938,2.567e-05,0.0,0 STARLINK-3647,1 51994U 22025AQ  24059.10101014  .00002567  00000-0  17938-3 0  9998,2 51994  53.2183 103.7528 0001528  82.6234 277.4932 15.08828866110647,6917.914,95.438,540.836,538.722,0.0
51994.0,STARLINK-3647,PAYLOAD,2024-02-28 10:22:22,15.08836743,0.0001641,53.2176,102.2663,85.666,274.452,0.00011945,1.613e-05,0.0,0 STARLINK-3647,1 51994U 22025AQ  24059.43220837  .00001613  00000-0  11945-3 0  9992,2 51994  53.2176 102.2663 0001641  85.6660 274.4520 15.08836743109163,6917.89,95.438,540.891,538.62,0.0
51994.0,STARLINK-3647,PAYLOAD,2024-02-28 19:54:41,15.08837113,0.0001699,53.2168,100.4808,79.5816,280.5367,4.1259e-05,3.69e-06,0.0,0 STARLINK-3647,1 51994U 22025AQ  24059.82965091  .00000369  00000-0  41259-4 0  9992,2 51994  53.2168 100.4808 0001699  79.5816 280.5367 15.08837113109229,6917.889,95.438,540.93,538.579,0.0
51994.0,STARLINK-3647,PAYLOAD,2024-02-29 11:48:32,15.0884455,0.0001535,53.2163,97.5073,84.5091,275.6076,-2.027e-05,-6.11e-06,0.0,0 STARLINK-3647,1 51994U 22025AQ  24060.49204831 -.00000611  00000-0 -20270-4 0  9997,2 51994  53.2163  97.5073 0001535  84.5091 275.6076 15.08844550110850,6917.866,95.437,540.793,538.67,0.0
51994.0,STARLINK-3647,PAYLOAD,2024-02-29 19:45:28,15.08843894,0.0001556,53.2163,96.0206,83.0334,277.0835,-2.8475e-05,-7.41e-06,0.0,0 STARLINK-3647,1 51994U 22025AQ  24060.82324806 -.00000741  00000-0 -28475-4 0  9998,2 51994  53.2163  96.0206 0001556  83.0334 277.0835 15.08843894109373,6917.868,95.437,540.81,538.657,0.0
51994.0,STARLINK-3647,PAYLOAD,2024-03-01 08:28:33,15.08843631,0.000159,53.2161,93.6417,85.0038,275.1136,7.616e-05,9.24e-06,0.0,0 STARLINK-3647,1 51994U 22025AQ  24061.35316525  .00000924  00000-0  76160-4 0  9991,2 51994  53.2161  93.6417 0001590  85.0038 275.1136 15.08843631109450,6917.869,95.437,540.834,538.634,0.0
51994.0,STARLINK-3647,PAYLOAD,2024-03-01 19:36:15,15.08842931,0.0001571,53.2163,91.5597,84.5245,275.5926,6.4037e-05,7.31e-06,0.0,0 STARLINK-3647,1 51994U 22025AQ  24061.81684484  .00000731  00000-0  64037-4 0  9990,2 51994  53.2163  91.5597 0001571  84.5245 275.5926 15.08842931111053,6917.871,95.437,540.823,538.65,0.0
51994.0,STARLINK-3647,PAYLOAD,2024-03-02 08:19:20,15.08842999,0.0001643,53.2163,89.1805,87.1947,272.9233,5.459e-05,5.81e-06,0.0,0 STARLINK-3647,1 51994U 22025AQ  24062.34676526  .00000581  00000-0  54590-4 0  9993,2 51994  53.2163  89.1805 0001643  87.1947 272.9233 15.08842999109600,6917.871,95.437,540.873,538.6,0.0
51994.0,STARLINK-3647,PAYLOAD,2024-03-03 04:59:21,15.08838507,0.000168,53.2159,85.3147,88.8054,271.313,-1.3193e-05,-4.98e-06,0.0,0 STARLINK-3647,1 51994U 22025AQ  24063.20789038 -.00000498  00000-0 -13193-4 0  9995,2 51994  53.2159  85.3147 0001680  88.8054 271.3130 15.08838507111264,6917.885,95.438,540.912,538.588,0.0
51994.0,STARLINK-3647,PAYLOAD,2024-03-03 08:10:07,15.08839719,0.0001704,53.2169,84.7183,95.7163,264.4024,-9.1164e-06,-4.33e-06,0.0,0 STARLINK-3647,1 51994U 22025AQ  24063.34036902 -.00000433  00000-0 -91164-5 0  9999,2 51994  53.2169  84.7183 0001704  95.7163 264.4024 15.08839719109755,6917.881,95.438,540.925,538.567,0.0
51994.0,STARLINK-3647,PAYLOAD,2024-03-04 08:00:54,15.08846387,0.000166,53.217,80.2611,98.9726,261.1454,4.388e-05,4.1e-06,0.0,0 STARLINK-3647,1 51994U 22025AQ  24064.33396405  .00000410  00000-0  43880-4 0  9990,2 51994  53.2170  80.2611 0001660  98.9726 261.1454 15.08846387111433,6917.861,95.437,540.874,538.578,0.0
51994.0,STARLINK-3647,PAYLOAD,2024-03-05 09:27:06,15.08825599,0.0001518,53.2172,75.5042,97.1436,262.9729,-2.2332e-05,-6.43e-06,0.0,0 STARLINK-3647,1 51994U 22025AQ  24065.39382576 -.00000643  00000-0 -22332-4 0  9990,2 51994  53.2172  75.5042 0001518  97.1436 262.9729 15.08825599110065,6917.924,95.438,540.84,538.739,0.0
51994.0,STARLINK-3647,PAYLOAD,2024-03-05 17:24:02,15.08830429,0.0001474,53.2169,74.0174,98.0702,262.0457,2.3732e-05,9e-07,0.0,0 STARLINK-3647,1 51994U 22025AQ  24065.72502379  .00000090  00000-0  23732-4 0  9991,2 51994  53.2169  74.0174 0001474  98.0702 262.0457 15.08830429111640,6917.91,95.438,540.794,538.755,0.0
51994.0,STARLINK-3647,PAYLOAD,2024-03-06 09:17:52,15.08851727,0.0001542,53.217,71.0403,95.1241,264.9927,0.00011939,1.613e-05,0.0,0 STARLINK-3647,1 51994U 22025AQ  24066.38740927  .00001613  00000-0  11939-3 0  9994,2 51994  53.2170  71.0403 0001542  95.1241 264.9927 15.08851727111744,6917.845,95.437,540.776,538.643,0.0
51994.0,STARLINK-3647,PAYLOAD,2024-03-07 04:22:30,15.08832839,0.0001941,53.2185,67.468,91.5705,268.5509,0.00013344,1.836e-05,0.0,0 STARLINK-3647,1 51994U 22025AQ  24067.18230259  .00001836  00000-0  13344-3 0  9994,2 51994  53.2185  67.4680 0001941  91.5705 268.5509 15.08832839111866,6917.902,95.438,541.11,538.425,0.0
51994.0,STARLINK-3647,PAYLOAD,2024-03-07 09:08:40,15.08836822,0.0001547,53.2177,66.5787,87.9998,272.1172,0.00013041,1.788e-05,0.0,0 STARLINK-3647,1 51994U 22025AQ  24067.38102230  .00001788  00000-0  13041-3 0  9993,2 51994  53.2177  66.5787 0001547  87.9998 272.1172 15.08836822110367,6917.89,95.438,540.825,538.685,0.0
51994.0,STARLINK-3647,PAYLOAD,2024-03-08 05:48:40,15.08847728,0.0001406,53.2168,62.714,90.8335,269.2818,-9.9195e-06,-4.46e-06,0.0,0 STARLINK-3647,1 51994U 22025AQ  24068.24214035 -.00000446  00000-0 -99195-5 0  9994,2 51994  53.2168  62.7140 0001406  90.8335 269.2818 15.08847728112026,6917.857,95.437,540.694,538.749,0.0
51994.0,STARLINK-3647,PAYLOAD,2024-03-08 16:56:22,15.08846858,0.0001759,53.2185,60.6309,90.8624,269.257,1.4109e-05,-6.4e-07,0.0,0 STARLINK-3647,1 51994U 22025AQ  24068.70581857 -.00000064  00000-0  14109-4 0  9990,2 51994  53.2185  60.6309 0001759  90.8624 269.2570 15.08846858110566,6917.859,95.437,540.941,538.508,0.0
51994.0,STARLINK-3647,PAYLOAD,2024-03-09 05:39:27,15.0884968,0.0001506,53.2182,58.252,97.4772,262.6391,0.00010569,1.395e-05,0.0,0 STARLINK-3647,1 51994U 22025AQ  24069.23573362  .00001395  00000-0  10569-3 0  9993,2 51994  53.2182  58.2520 0001506  97.4772 262.6391 15.08849680110641,6917.851,95.437,540.758,538.674,0.0
51994.0,STARLINK-3647,PAYLOAD,2024-03-09 16:47:09,15.08842144,0.0001552,53.2192,56.1713,94.3878,265.7292,8.497e-05,1.065e-05,0.0,0 STARLINK-3647,1 51994U 22025AQ  24069.69941744  .00001065  00000-0  84970-4 0  9998,2 51994  53.2192  56.1713 0001552  94.3878 265.7292 15.08842144112247,6917.874,95.437,540.812,538.665,0.0
51994.0,STARLINK-3647,PAYLOAD,2024-03-09 23:08:42,15.0884334,0.0001348,53.2187,54.982,94.8249,265.2898,0.00010239,1.342e-05,0.0,0 STARLINK-3647,1 51994U 22025AQ  24069.96437515  .00001342  00000-0  10239-3 0  9998,2 51994  53.2187  54.9820 0001348  94.8249 265.2898 15.08843340110756,6917.87,95.437,540.668,538.803,0.0
51994.0,STARLINK-3647,PAYLOAD,2024-03-10 05:30:14,15.08848401,0.0001536,53.2183,53.7919,104.6883,255.428,0.00010422,1.371e-05,0.0,0 STARLINK-3647,1 51994U 22025AQ  24070.22933184  .00001371  00000-0  10422-3 0  9998,2 51994  53.2183  53.7919 0001536 104.6883 255.4280 15.08848401110794,6917.855,95.437,540.782,538.657,0.0
51994.0,STARLINK-3647,PAYLOAD,2024-03-11 03:45:37,15.08881836,9.12e-05,53.2191,49.6277,104.8022,255.3071,-0.00069487,-0.00011342,0.0,0 STARLINK-3647,1 51994U 22025AQ  24071.15668166 -.00011342  00000-0 -69487-3 0  9992,2 51994  53.2191  49.6277 0000912 104.8022 255.3071 15.08881836112460,6917.753,95.435,540.248,538.987,0.0
51994.0,STARLINK-3647,PAYLOAD,2024-03-11 14:53:20,15.08839037,0.0001468,53.2185,47.5467,102.308,257.8076,-4.0713e-05,-9.36e-06,0.0,0 STARLINK-3647,1 51994U 22025AQ  24071.62038142 -.00000936  00000-0 -40713-4 0  9998,2 51994  53.2185  47.5467 0001468 102.3080 257.8076 15.08839037112531,6917.883,95.438,540.764,538.733,0.0
51994.0,STARLINK-3647,PAYLOAD,2024-03-12 14:44:08,15.08828543,0.0001445,53.2189,43.084,91.5764,268.5393,2.5976e-05,1.25e-06,0.0,0 STARLINK-3647,1 51994U 22025AQ  24072.61398955  .00000125  00000-0  25976-4 0  9991,2 51994  53.2189  43.0840 0001445  91.5764 268.5393 15.08828543112681,6917.915,95.438,540.78,538.781,0.0
51994.0,STARLINK-3647,PAYLOAD,2024-03-13 05:02:36,15.08842471,0.0001231,53.2173,40.4111,86.9573,273.156,0.00014736,2.058e-05,0.0,0 STARLINK-3647,1 51994U 22025AQ  24073.21014027  .00002058  00000-0  14736-3 0  9991,2 51994  53.2173  40.4111 0001231  86.9573 273.1560 15.08842471112779,6917.873,95.437,540.589,538.886,0.0
51994.0,STARLINK-3647,PAYLOAD,2024-03-13 14:34:55,15.08839325,0.0001296,53.2178,38.6287,94.6905,265.4235,0.00011851,1.599e-05,0.0,0 STARLINK-3647,1 51994U 22025AQ  24073.60758463  .00001599  00000-0  11851-3 0  9997,2 51994  53.2178  38.6287 0001296  94.6905 265.4235 15.08839325111308,6917.882,95.438,540.644,538.851,0.0
51994.0,STARLINK-3647,PAYLOAD,2024-03-14 06:28:46,15.08848231,0.0001528,53.2191,35.6541,95.4399,264.6767,0.00010688,1.414e-05,0.0,0 STARLINK-3647,1 51994U 22025AQ  24074.26998037  .00001414  00000-0  10688-3 0  9996,2 51994  53.2191  35.6541 0001528  95.4399 264.6767 15.08848231112934,6917.855,95.437,540.777,538.663,0.0
